ONEWEB-0558             
1 56059U 23043P   25357.14697228  .00000075  00000+0  14906-3 0  9992
2 56059  87.9222 279.0967 0001601  58.3538 301.7752 13.21824624134980
ONEWEB-0559             
1 56060U 23043Q   25357.21114053  .00000126  00000+0  27262-3 0  9998
2 56060  87.9223 279.0772 0001868  67.1809 292.9522 13.21825618135005
ONEWEB-0566             
1 56061U 23043R   25357.20456352  .00000103  00000+0  21751-3 0  9991
2 56061  87.9227 279.0769 0001754  64.3153 295.8162 13.21826453134987
ONEWEB-0568             
1 56062U 23043S   25357.15395932 -.00000314  00000+0 -85561-3 0  9997
2 56062  87.9051 263.8211 0001512  83.7307 276.3996 13.16593697135811
ONEWEB-0574             
1 56063U 23043T   25357.19798516  .00000136  00000+0  29766-3 0  9992
2 56063  87.9228 279.0661 0001917  80.6727 279.4624 13.21826534135027
ONEWEB-0575             
1 56064U 23043U   25357.14762475 -.00000169  00000+0 -47466-3 0  9998
2 56064  87.9048 263.8219 0001852  86.5424 273.5919 13.16595303135804
ONEWEB-0576             
1 56065U 23043V   25357.20463227 -.00000049  00000+0 -16266-3 0  9990
2 56065  87.9048 263.8119 0001712  79.7676 280.3648 13.16594324135809
ONEWEB-0577             
1 56066U 23043W   25357.21095917 -.00000160  00000+0 -45161-3 0  9999
2 56066  87.9054 263.8100 0002293  89.8318 270.3076 13.16594278135832
ONEWEB-0578             
1 56067U 23043X   25357.18482262  .00000026  00000+0  32200-4 0  9999
2 56067  87.9228 279.0791 0001579  82.4192 277.7121 13.21824896134981
ONEWEB-0579             
1 56068U 23043Y   25357.25063276  .00000087  00000+0  17843-3 0  9990
2 56068  87.9227 279.0538 0001963  69.0337 291.1007 13.21829025135005
ONEWEB-0581             
1 56069U 23043Z   25357.21729301 -.00000274  00000+0 -74913-3 0  9996
2 56069  87.9045 263.8216 0001998  79.5752 280.5605 13.16594439135809
ONEWEB-0609             
1 56070U 23043AA  25357.18709739 -.00000152  00000+0 -43823-3 0  9998
2 56070  87.9005 294.3390 0001707  73.8427 286.2891 13.15549292133290
ONEWEB-0613             
1 56071U 23043AB  25356.26964665  .00000125  00000+0  29751-3 0  9990
2 56071  87.9004 294.5342 0001867  68.7393 291.3937 13.15550916133171
ONEWEB-0630             
1 56072U 23043AC  25357.25363632 -.00000338  00000+0 -93098-3 0  9991
2 56072  87.9000 294.3095 0001903  67.2180 292.9151 13.15548203133294
ONEWEB-0632             
1 56073U 23043AD  25357.24889690 -.00000069  00000+0 -21692-3 0  9990
2 56073  87.8997 294.3283 0001984  77.9867 282.1485 13.15547953133299
ONEWEB-0633             
1 56074U 23043AE  25356.86226333 -.00000204  00000+0 -57522-3 0  9999
2 56074  87.9006 294.3698 0001759  64.8630 295.2683 13.15549936133226
