[{"OBJECT_NAME":"ONEWEB-0558","OBJECT_ID":"2023-043P","EPOCH":"2025-12-23T03:31:38.404992","MEAN_MOTION":13.21824624,"ECCENTRICITY":0.00016016,"INCLINATION":87.9222,"RA_OF_ASC_NODE":279.0967,"ARG_OF_PERICENTER":58.3538,"MEAN_ANOMALY":301.7752,"EPHEMERIS_TYPE":0,"CLASSIFICATION_TYPE":"U","NORAD_CAT_ID":56059,"ELEMENT_SET_NO":999,"REV_AT_EPOCH":13498,"BSTAR":0.00014905826,"MEAN_MOTION_DOT":7.5e-7,"MEAN_MOTION_DDOT":0},{"OBJECT_NAME":"ONEWEB-0559","OBJECT_ID":"2023-043Q","EPOCH":"2025-12-23T05:04:02.541792","MEAN_MOTION":13.21825618,"ECCENTRICITY":0.00018681,"INCLINATION":87.9223,"RA_OF_ASC_NODE":279.0772,"ARG_OF_PERICENTER":67.1809,"MEAN_ANOMALY":292.9522,"EPHEMERIS_TYPE":0,"CLASSIFICATION_TYPE":"U","NORAD_CAT_ID":56060,"ELEMENT_SET_NO":999,"REV_AT_EPOCH":13500,"BSTAR":0.00027261991,"MEAN_MOTION_DOT":1.26e-6,"MEAN_MOTION_DDOT":0},{"OBJECT_NAME":"ONEWEB-0566","OBJECT_ID":"2023-043R","EPOCH":"2025-12-23T04:54:34.288128","MEAN_MOTION":13.21826453,"ECCENTRICITY":0.00017542,"INCLINATION":87.9227,"RA_OF_ASC_NODE":279.0769,"ARG_OF_PERICENTER":64.3153,"MEAN_ANOMALY":295.8162,"EPHEMERIS_TYPE":0,"CLASSIFICATION_TYPE":"U","NORAD_CAT_ID":56061,"ELEMENT_SET_NO":999,"REV_AT_EPOCH":13498,"BSTAR":0.00021751159,"MEAN_MOTION_DOT":1.03e-6,"MEAN_MOTION_DDOT":0},{"OBJECT_NAME":"ONEWEB-0568","OBJECT_ID":"2023-043S","EPOCH":"2025-12-23T03:41:42.085248","MEAN_MOTION":13.16593697,"ECCENTRICITY":0.00015122,"INCLINATION":87.9051,"RA_OF_ASC_NODE":263.8211,"ARG_OF_PERICENTER":83.7307,"MEAN_ANOMALY":276.3996,"EPHEMERIS_TYPE":0,"CLASSIFICATION_TYPE":"U","NORAD_CAT_ID":56062,"ELEMENT_SET_NO":999,"REV_AT_EPOCH":13581,"BSTAR":-0.00085560805,"MEAN_MOTION_DOT":-3.14e-6,"MEAN_MOTION_DDOT":0},{"OBJECT_NAME":"ONEWEB-0574","OBJECT_ID":"2023-043T","EPOCH":"2025-12-23T04:45:05.917824","MEAN_MOTION":13.21826534,"ECCENTRICITY":0.00019175,"INCLINATION":87.9228,"RA_OF_ASC_NODE":279.0661,"ARG_OF_PERICENTER":80.6727,"MEAN_ANOMALY":279.4624,"EPHEMERIS_TYPE":0,"CLASSIFICATION_TYPE":"U","NORAD_CAT_ID":56063,"ELEMENT_SET_NO":999,"REV_AT_EPOCH":13502,"BSTAR":0.00029766264,"MEAN_MOTION_DOT":1.36e-6,"MEAN_MOTION_DDOT":0},{"OBJECT_NAME":"ONEWEB-0575","OBJECT_ID":"2023-043U","EPOCH":"2025-12-23T03:32:34.778400","MEAN_MOTION":13.16595303,"ECCENTRICITY":0.00018526,"INCLINATION":87.9048,"RA_OF_ASC_NODE":263.8219,"ARG_OF_PERICENTER":86.5424,"MEAN_ANOMALY":273.5919,"EPHEMERIS_TYPE":0,"CLASSIFICATION_TYPE":"U","NORAD_CAT_ID":56064,"ELEMENT_SET_NO":999,"REV_AT_EPOCH":13580,"BSTAR":-0.00047466022,"MEAN_MOTION_DOT":-1.69e-6,"MEAN_MOTION_DDOT":0},{"OBJECT_NAME":"ONEWEB-0576","OBJECT_ID":"2023-043V","EPOCH":"2025-12-23T04:54:40.228128","MEAN_MOTION":13.16594324,"ECCENTRICITY":0.00017129,"INCLINATION":87.9048,"RA_OF_ASC_NODE":263.8119,"ARG_OF_PERICENTER":79.7676,"MEAN_ANOMALY":280.3648,"EPHEMERIS_TYPE":0,"CLASSIFICATION_TYPE":"U","NORAD_CAT_ID":56065,"ELEMENT_SET_NO":999,"REV_AT_EPOCH":13580,"BSTAR":-0.00016265839,"MEAN_MOTION_DOT":-4.9e-7,"MEAN_MOTION_DDOT":0},{"OBJECT_NAME":"ONEWEB-0577","OBJECT_ID":"2023-043W","EPOCH":"2025-12-23T05:03:46.872288","MEAN_MOTION":13.16594278,"ECCENTRICITY":0.00022933,"INCLINATION":87.9054,"RA_OF_ASC_NODE":263.81,"ARG_OF_PERICENTER":89.8318,"MEAN_ANOMALY":270.3076,"EPHEMERIS_TYPE":0,"CLASSIFICATION_TYPE":"U","NORAD_CAT_ID":56066,"ELEMENT_SET_NO":999,"REV_AT_EPOCH":13583,"BSTAR":-0.00045160628,"MEAN_MOTION_DOT":-1.6e-6,"MEAN_MOTION_DDOT":0},{"OBJECT_NAME":"ONEWEB-0578","OBJECT_ID":"2023-043X","EPOCH":"2025-12-23T04:26:08.674368","MEAN_MOTION":13.21824896,"ECCENTRICITY":0.00015793,"INCLINATION":87.9228,"RA_OF_ASC_NODE":279.0791,"ARG_OF_PERICENTER":82.4192,"MEAN_ANOMALY":277.7121,"EPHEMERIS_TYPE":0,"CLASSIFICATION_TYPE":"U","NORAD_CAT_ID":56067,"ELEMENT_SET_NO":999,"REV_AT_EPOCH":13498,"BSTAR":3.2200487e-5,"MEAN_MOTION_DOT":2.6e-7,"MEAN_MOTION_DDOT":0},{"OBJECT_NAME":"ONEWEB-0579","OBJECT_ID":"2023-043Y","EPOCH":"2025-12-23T06:00:54.670464","MEAN_MOTION":13.21829025,"ECCENTRICITY":0.00019634,"INCLINATION":87.9227,"RA_OF_ASC_NODE":279.0538,"ARG_OF_PERICENTER":69.0337,"MEAN_ANOMALY":291.1007,"EPHEMERIS_TYPE":0,"CLASSIFICATION_TYPE":"U","NORAD_CAT_ID":56068,"ELEMENT_SET_NO":999,"REV_AT_EPOCH":13500,"BSTAR":0.00017843349,"MEAN_MOTION_DOT":8.7e-7,"MEAN_MOTION_DDOT":0},{"OBJECT_NAME":"ONEWEB-0581","OBJECT_ID":"2023-043Z","EPOCH":"2025-12-23T05:12:54.116064","MEAN_MOTION":13.16594439,"ECCENTRICITY":0.0001998,"INCLINATION":87.9045,"RA_OF_ASC_NODE":263.8216,"ARG_OF_PERICENTER":79.5752,"MEAN_ANOMALY":280.5605,"EPHEMERIS_TYPE":0,"CLASSIFICATION_TYPE":"U","NORAD_CAT_ID":56069,"ELEMENT_SET_NO":999,"REV_AT_EPOCH":13580,"BSTAR":-0.00074913492,"MEAN_MOTION_DOT":-2.74e-6,"MEAN_MOTION_DDOT":0},{"OBJECT_NAME":"ONEWEB-0609","OBJECT_ID":"2023-043AA","EPOCH":"2025-12-23T04:29:25.214496","MEAN_MOTION":13.15549292,"ECCENTRICITY":0.00017078,"INCLINATION":87.9005,"RA_OF_ASC_NODE":294.339,"ARG_OF_PERICENTER":73.8427,"MEAN_ANOMALY":286.2891,"EPHEMERIS_TYPE":0,"CLASSIFICATION_TYPE":"U","NORAD_CAT_ID":56070,"ELEMENT_SET_NO":999,"REV_AT_EPOCH":13329,"BSTAR":-0.00043823226,"MEAN_MOTION_DOT":-1.52e-6,"MEAN_MOTION_DDOT":0},{"OBJECT_NAME":"ONEWEB-0613","OBJECT_ID":"2023-043AB","EPOCH":"2025-12-22T06:28:17.470560","MEAN_MOTION":13.15550916,"ECCENTRICITY":0.00018676,"INCLINATION":87.9004,"RA_OF_ASC_NODE":294.5342,"ARG_OF_PERICENTER":68.7393,"MEAN_ANOMALY":291.3937,"EPHEMERIS_TYPE":0,"CLASSIFICATION_TYPE":"U","NORAD_CAT_ID":56071,"ELEMENT_SET_NO":999,"REV_AT_EPOCH":13317,"BSTAR":0.00029750743,"MEAN_MOTION_DOT":1.25e-6,"MEAN_MOTION_DDOT":0},{"OBJECT_NAME":"ONEWEB-0630","OBJECT_ID":"2023-043AC","EPOCH":"2025-12-23T06:05:14.178048","MEAN_MOTION":13.15548203,"ECCENTRICITY":0.00019034,"INCLINATION":87.9,"RA_OF_ASC_NODE":294.3095,"ARG_OF_PERICENTER":67.218,"MEAN_ANOMALY":292.9151,"EPHEMERIS_TYPE":0,"CLASSIFICATION_TYPE":"U","NORAD_CAT_ID":56072,"ELEMENT_SET_NO":999,"REV_AT_EPOCH":13329,"BSTAR":-0.00093097943,"MEAN_MOTION_DOT":-3.38e-6,"MEAN_MOTION_DDOT":0},{"OBJECT_NAME":"ONEWEB-0632","OBJECT_ID":"2023-043AD","EPOCH":"2025-12-23T05:58:24.692160","MEAN_MOTION":13.15547953,"ECCENTRICITY":0.00019845,"INCLINATION":87.8997,"RA_OF_ASC_NODE":294.3283,"ARG_OF_PERICENTER":77.9867,"MEAN_ANOMALY":282.1485,"EPHEMERIS_TYPE":0,"CLASSIFICATION_TYPE":"U","NORAD_CAT_ID":56073,"ELEMENT_SET_NO":999,"REV_AT_EPOCH":13329,"BSTAR":-0.00021692002,"MEAN_MOTION_DOT":-6.9e-7,"MEAN_MOTION_DDOT":0},{"OBJECT_NAME":"ONEWEB-0633","OBJECT_ID":"2023-043AE","EPOCH":"2025-12-22T20:41:39.551712","MEAN_MOTION":13.15549936,"ECCENTRICITY":0.0001759,"INCLINATION":87.9006,"RA_OF_ASC_NODE":294.3698,"ARG_OF_PERICENTER":64.863,"MEAN_ANOMALY":295.2683,"EPHEMERIS_TYPE":0,"CLASSIFICATION_TYPE":"U","NORAD_CAT_ID":56074,"ELEMENT_SET_NO":999,"REV_AT_EPOCH":13322,"BSTAR":-0.00057522,"MEAN_MOTION_DOT":-2.04e-6,"MEAN_MOTION_DDOT":0}]
